{"type": "FeatureCollection", "features": [ {"type": "Feature", "properties": {"norad_id": 39155, "name": "COSMOS 2485 (747)", "group": "glo-ops", "lat": -11.522427982932147, "lon": 74.648220650259, "alt_km": 19161.338041403655, "timestamp": "2025-12-08T08:59:01.026591+00:00", "meta": {"OBJECT_NAME": "COSMOS 2485 (747)", "OBJECT_ID": "2013-019A", "EPOCH": "2025-12-05T02:32:45.729312", "MEAN_MOTION": 2.13102875, "ECCENTRICITY": 0.00246247, "INCLINATION": 65.3094, "RA_OF_ASC_NODE": 80.124, "ARG_OF_PERICENTER": 229.2984, "MEAN_ANOMALY": 130.4888, "EPHEMERIS_TYPE": 0, "CLASSIFICATION_TYPE": "U", "NORAD_CAT_ID": 39155, "ELEMENT_SET_NO": 999, "REV_AT_EPOCH": 9814, "BSTAR": 0, "MEAN_MOTION_DOT": -2.1e-07, "MEAN_MOTION_DDOT": 0}, "tle": {"line1": "1 39155U 13019A   25339.10608483 -.00000021  00000+0  00000+0 0  9991", "line2": "2 39155  65.3094  80.1240 0024624 229.2984 130.4888  2.13102875 98144"}}, "geometry": {"type": "Point", "coordinates": [74.648220650259, -11.522427982932147]}}, {"type": "Feature", "properties": {"norad_id": 39620, "name": "COSMOS 2492 (754)", "group": "glo-ops", "lat": 17.273561416827704, "lon": -31.40901718787948, "alt_km": 19114.180612197277, "timestamp": "2025-12-08T08:59:01.026602+00:00", "meta": {"OBJECT_NAME": "COSMOS 2492 (754)", "OBJECT_ID": "2014-012A", "EPOCH": "2025-12-06T22:36:05.505696", "MEAN_MOTION": 2.13103091, "ECCENTRICITY": 0.00141965, "INCLINATION": 65.4111, "RA_OF_ASC_NODE": 320.4673, "ARG_OF_PERICENTER": 311.6327, "MEAN_ANOMALY": 48.2397, "EPHEMERIS_TYPE": 0, "CLASSIFICATION_TYPE": "U", "NORAD_CAT_ID": 39620, "ELEMENT_SET_NO": 999, "REV_AT_EPOCH": 9114, "BSTAR": 0, "MEAN_MOTION_DOT": -4.9e-07, "MEAN_MOTION_DDOT": 0}, "tle": {"line1": "1 39620U 14012A   25340.94173039 -.00000049  00000+0  00000+0 0  9990", "line2": "2 39620  65.4111 320.4673 0014196 311.6327  48.2397  2.13103091 91147"}}, "geometry": {"type": "Point", "coordinates": [-31.40901718787948, 17.273561416827704]}}, {"type": "Feature", "properties": {"norad_id": 40001, "name": "COSMOS 2500 (755)", "group": "glo-ops", "lat": -56.713030099723056, "lon": -175.45417883808, "alt_km": 19117.364668936436, "timestamp": "2025-12-08T08:59:01.026614+00:00", "meta": {"OBJECT_NAME": "COSMOS 2500 (755)", "OBJECT_ID": "2014-032A", "EPOCH": "2025-12-07T02:44:10.438080", "MEAN_MOTION": 2.13105901, "ECCENTRICITY": 0.00081625, "INCLINATION": 65.3466, "RA_OF_ASC_NODE": 320.2241, "ARG_OF_PERICENTER": 219.2555, "MEAN_ANOMALY": 140.6795, "EPHEMERIS_TYPE": 0, "CLASSIFICATION_TYPE": "U", "NORAD_CAT_ID": 40001, "ELEMENT_SET_NO": 999, "REV_AT_EPOCH": 8936, "BSTAR": 0, "MEAN_MOTION_DOT": -4.9e-07, "MEAN_MOTION_DDOT": 0}, "tle": {"line1": "1 40001U 14032A   25341.11400970 -.00000049  00000+0  00000+0 0  9994", "line2": "2 40001  65.3466 320.2241 0008162 219.2555 140.6795  2.13105901 89367"}}, "geometry": {"type": "Point", "coordinates": [-175.45417883808, -56.713030099723056]}}, {"type": "Feature", "properties": {"norad_id": 40315, "name": "COSMOS 2501 (702K)", "group": "glo-ops", "lat": 41.303479915835176, "lon": -137.15612523931551, "alt_km": 19172.514218925087, "timestamp": "2025-12-08T08:59:01.026625+00:00", "meta": {"OBJECT_NAME": "COSMOS 2501 (702K)", "OBJECT_ID": "2014-075A", "EPOCH": "2025-12-06T21:42:23.948640", "MEAN_MOTION": 2.13101325, "ECCENTRICITY": 0.002014, "INCLINATION": 63.6139, "RA_OF_ASC_NODE": 197.0273, "ARG_OF_PERICENTER": 204.5326, "MEAN_ANOMALY": 155.4549, "EPHEMERIS_TYPE": 0, "CLASSIFICATION_TYPE": "U", "NORAD_CAT_ID": 40315, "ELEMENT_SET_NO": 999, "REV_AT_EPOCH": 8575, "BSTAR": 0, "MEAN_MOTION_DOT": 6.6e-07, "MEAN_MOTION_DDOT": 0}, "tle": {"line1": "1 40315U 14075A   25340.90444385  .00000066  00000+0  00000+0 0  9991", "line2": "2 40315  63.6139 197.0273 0020140 204.5326 155.4549  2.13101325 85757"}}, "geometry": {"type": "Point", "coordinates": [-137.15612523931551, 41.303479915835176]}}, {"type": "Feature", "properties": {"norad_id": 41330, "name": "COSMOS 2514 (751)", "group": "glo-ops", "lat": 51.65140739126525, "lon": -4.585475381024037, "alt_km": 19153.567678216274, "timestamp": "2025-12-08T08:59:01.026637+00:00", "meta": {"OBJECT_NAME": "COSMOS 2514 (751)", "OBJECT_ID": "2016-008A", "EPOCH": "2025-12-06T21:19:17.818752", "MEAN_MOTION": 2.13102518, "ECCENTRICITY": 0.00123323, "INCLINATION": 65.1372, "RA_OF_ASC_NODE": 319.6044, "ARG_OF_PERICENTER": 219.9906, "MEAN_ANOMALY": 139.9121, "EPHEMERIS_TYPE": 0, "CLASSIFICATION_TYPE": "U", "NORAD_CAT_ID": 41330, "ELEMENT_SET_NO": 999, "REV_AT_EPOCH": 7652, "BSTAR": 0, "MEAN_MOTION_DOT": -4.9e-07, "MEAN_MOTION_DDOT": 0}, "tle": {"line1": "1 41330U 16008A   25340.88840068 -.00000049  00000+0  00000+0 0  9994", "line2": "2 41330  65.1372 319.6044 0012332 219.9906 139.9121  2.13102518 76520"}}, "geometry": {"type": "Point", "coordinates": [-4.585475381024037, 51.65140739126525]}}, {"type": "Feature", "properties": {"norad_id": 42939, "name": "COSMOS 2522 (752)", "group": "glo-ops", "lat": -3.4765757532007475, "lon": 20.075489342212244, "alt_km": 19118.519225375563, "timestamp": "2025-12-08T08:59:01.026648+00:00", "meta": {"OBJECT_NAME": "COSMOS 2522 (752)", "OBJECT_ID": "2017-055A", "EPOCH": "2025-12-07T04:42:21.698208", "MEAN_MOTION": 2.13101873, "ECCENTRICITY": 0.00064632, "INCLINATION": 64.0758, "RA_OF_ASC_NODE": 198.418, "ARG_OF_PERICENTER": 225.3159, "MEAN_ANOMALY": 134.7149, "EPHEMERIS_TYPE": 0, "CLASSIFICATION_TYPE": "U", "NORAD_CAT_ID": 42939, "ELEMENT_SET_NO": 999, "REV_AT_EPOCH": 6388, "BSTAR": 0, "MEAN_MOTION_DOT": 6.1e-07, "MEAN_MOTION_DDOT": 0}, "tle": {"line1": "1 42939U 17055A   25341.19608447  .00000061  00000+0  00000+0 0  9994", "line2": "2 42939  64.0758 198.4180 0006463 225.3159 134.7149  2.13101873 63886"}}, "geometry": {"type": "Point", "coordinates": [20.075489342212244, -3.4765757532007475]}}, {"type": "Feature", "properties": {"norad_id": 43508, "name": "COSMOS 2527 (756)", "group": "glo-ops", "lat": -30.566352616189363, "lon": -84.09556155004884, "alt_km": 19112.17333270204, "timestamp": "2025-12-08T08:59:01.026659+00:00", "meta": {"OBJECT_NAME": "COSMOS 2527 (756)", "OBJECT_ID": "2018-053A", "EPOCH": "2025-12-07T03:45:49.475232", "MEAN_MOTION": 2.13102044, "ECCENTRICITY": 0.00087312, "INCLINATION": 65.4694, "RA_OF_ASC_NODE": 80.3184, "ARG_OF_PERICENTER": 225.1381, "MEAN_ANOMALY": 134.8008, "EPHEMERIS_TYPE": 0, "CLASSIFICATION_TYPE": "U", "NORAD_CAT_ID": 43508, "ELEMENT_SET_NO": 999, "REV_AT_EPOCH": 5818, "BSTAR": 0, "MEAN_MOTION_DOT": -1.2e-07, "MEAN_MOTION_DDOT": 0}, "tle": {"line1": "1 43508U 18053A   25341.15682263 -.00000012  00000+0  00000+0 0  9997", "line2": "2 43508  65.4694  80.3184 0008731 225.1381 134.8008  2.13102044 58184"}}, "geometry": {"type": "Point", "coordinates": [-84.09556155004884, -30.566352616189363]}}, {"type": "Feature", "properties": {"norad_id": 43687, "name": "COSMOS 2529 (757)", "group": "glo-ops", "lat": 36.107080603388816, "lon": -1.5340664137166955, "alt_km": 19133.663712334946, "timestamp": "2025-12-08T08:59:01.026671+00:00", "meta": {"OBJECT_NAME": "COSMOS 2529 (757)", "OBJECT_ID": "2018-086A", "EPOCH": "2025-12-03T00:44:36.468960", "MEAN_MOTION": 2.13101888, "ECCENTRICITY": 0.00072932, "INCLINATION": 64.2917, "RA_OF_ASC_NODE": 199.2166, "ARG_OF_PERICENTER": 254.4618, "MEAN_ANOMALY": 105.5545, "EPHEMERIS_TYPE": 0, "CLASSIFICATION_TYPE": "U", "NORAD_CAT_ID": 43687, "ELEMENT_SET_NO": 999, "REV_AT_EPOCH": 5510, "BSTAR": 0, "MEAN_MOTION_DOT": 1.06e-06, "MEAN_MOTION_DDOT": 0}, "tle": {"line1": "1 43687U 18086A   25337.03097765  .00000106  00000+0  00000+0 0  9993", "line2": "2 43687  64.2917 199.2166 0007293 254.4618 105.5545  2.13101888 55102"}}, "geometry": {"type": "Point", "coordinates": [-1.5340664137166955, 36.107080603388816]}}, {"type": "Feature", "properties": {"norad_id": 44299, "name": "COSMOS 2534 (758)", "group": "glo-ops", "lat": -64.11522256120809, "lon": 117.30801914321036, "alt_km": 19113.975484923267, "timestamp": "2025-12-08T08:59:01.026682+00:00", "meta": {"OBJECT_NAME": "COSMOS 2534 (758)", "OBJECT_ID": "2019-030A", "EPOCH": "2025-12-07T18:53:39.162912", "MEAN_MOTION": 2.1310206, "ECCENTRICITY": 0.00089584, "INCLINATION": 64.3654, "RA_OF_ASC_NODE": 199.0599, "ARG_OF_PERICENTER": 283.6827, "MEAN_ANOMALY": 259.6101, "EPHEMERIS_TYPE": 0, "CLASSIFICATION_TYPE": "U", "NORAD_CAT_ID": 44299, "ELEMENT_SET_NO": 999, "REV_AT_EPOCH": 5084, "BSTAR": 0, "MEAN_MOTION_DOT": 5.4e-07, "MEAN_MOTION_DDOT": 0}, "tle": {"line1": "1 44299U 19030A   25341.78725883  .00000054  00000+0  00000+0 0  9991", "line2": "2 44299  64.3654 199.0599 0008958 283.6827 259.6101  2.13102060 50842"}}, "geometry": {"type": "Point", "coordinates": [117.30801914321036, -64.11522256120809]}}, {"type": "Feature", "properties": {"norad_id": 44850, "name": "COSMOS 2544 (759)", "group": "glo-ops", "lat": -62.1929106845881, "lon": -40.01301388339597, "alt_km": 19101.591199120805, "timestamp": "2025-12-08T08:59:01.026693+00:00", "meta": {"OBJECT_NAME": "COSMOS 2544 (759)", "OBJECT_ID": "2019-088A", "EPOCH": "2025-12-05T05:23:01.027680", "MEAN_MOTION": 2.1310179, "ECCENTRICITY": 0.00137742, "INCLINATION": 65.456, "RA_OF_ASC_NODE": 80.2099, "ARG_OF_PERICENTER": 249.0312, "MEAN_ANOMALY": 110.8229, "EPHEMERIS_TYPE": 0, "CLASSIFICATION_TYPE": "U", "NORAD_CAT_ID": 44850, "ELEMENT_SET_NO": 999, "REV_AT_EPOCH": 4658, "BSTAR": 0, "MEAN_MOTION_DOT": -2e-07, "MEAN_MOTION_DDOT": 0}, "tle": {"line1": "1 44850U 19088A   25339.22431745 -.00000020  00000+0  00000+0 0  9998", "line2": "2 44850  65.4560  80.2099 0013774 249.0312 110.8229  2.13101790 46580"}}, "geometry": {"type": "Point", "coordinates": [-40.01301388339597, -62.1929106845881]}}]}